EUTELSAT 8 WEST B       
1 40875U 15039B   25308.39155169 -.00000053  00000+0  00000+0 0  9996
2 40875   0.0697 346.9496 0003980 240.5581 309.3471  1.00271595 37405
EUTELSAT 9B             
1 41310U 16005A   25308.25219096  .00000075  00000+0  00000+0 0  9993
2 41310   0.0668  73.1709 0004281 175.7305 254.6541  1.00271352 35861
EUTELSAT 65 WEST A      
1 41382U 16014A   25308.49275975 -.00000264  00000+0  00000+0 0  9997
2 41382   0.0819  51.5549 0002700 186.1674 278.4787  1.00268957 35288
EUTELSAT 117 WEST B     
1 41589U 16038B   25308.30368097  .00000001  00000+0  00000+0 0  9998
2 41589   0.0152 106.2558 0000423 313.3986 336.4915  1.00271037 34409
EUTELSAT 172B           
1 42741U 17029B   25308.42719306  .00000007  00000+0  00000+0 0  9992
2 42741   0.0218 177.1398 0000045  38.3476 154.2456  1.00271619 31476
EUTELSAT 7C             
1 44334U 19034B   25308.17961375  .00000061  00000+0  00000+0 0  9997
2 44334   0.0679 185.0031 0003318  21.3930 268.9636  1.00270578  4579
EUTELSAT 5 WEST B       
1 44624U 19067A   25308.24941763 -.00000029  00000+0  00000+0 0  9997
2 44624   0.0738 330.4565 0003662 259.7353 258.3823  1.00275403 22183
EUTELSAT KONNECT        
1 45027U 20005B   25308.17961375  .00000062  00000+0  00000+0 0  9998
2 45027   0.0662  89.9993 0001314 185.0038 200.5498  1.00267920 22071
